{
  "type": "FeatureCollection",
  "features": [
    {
      "type": "Feature",
      "properties": {
        "norad_id": 44231,
        "name": "BEIDOU-2 G8 (C01)",
        "group": "gnss",
        "lat": -1.3997936800944968,
        "lon": -50.566412965468885,
        "alt_km": 35753.633159978184,
        "timestamp": "2025-12-26T04:40:06.030642+00:00",
        "meta_object_name": "BEIDOU-2 G8 (C01)",
        "meta_object_id": "2019-027A",
        "meta_epoch": "2025-12-25T18:53:23.712000",
        "meta_mean_motion": 1.00274194,
        "meta_eccentricity": 0.00083248,
        "meta_inclination": 1.6928,
        "meta_ra_of_asc_node": 74.7393,
        "meta_arg_of_pericenter": 258.9605,
        "meta_mean_anomaly": 188.7083,
        "meta_ephemeris_type": 0,
        "meta_classification_type": "U",
        "meta_norad_cat_id": 44231,
        "meta_element_set_no": 999,
        "meta_rev_at_epoch": 2434,
        "meta_bstar": 0,
        "meta_mean_motion_dot": -2.26e-06,
        "meta_mean_motion_ddot": 0,
        "tle_line1": "1 44231U 19027A   25359.78708000 -.00000226  00000+0  00000+0 0  9996",
        "tle_line2": "2 44231   1.6928  74.7393 0008324 258.9605 188.7083  1.00274194 24343"
      },
      "geometry": {
        "type": "Point",
        "coordinates": [
          -50.566412965468885,
          -1.3997936800944968
        ]
      }
    },
    {
      "type": "Feature",
      "properties": {
        "norad_id": 44299,
        "name": "COSMOS 2534 (758)",
        "group": "gnss",
        "lat": -63.83555201368122,
        "lon": 96.32156503604277,
        "alt_km": 19115.658848974857,
        "timestamp": "2025-12-26T04:40:06.030664+00:00",
        "meta_object_name": "COSMOS 2534 (758)",
        "meta_object_id": "2019-030A",
        "meta_epoch": "2025-12-25T02:45:29.854368",
        "meta_mean_motion": 2.13102173,
        "meta_eccentricity": 0.00086185,
        "meta_inclination": 64.3664,
        "meta_ra_of_asc_node": 198.4757,
        "meta_arg_of_pericenter": 283.7292,
        "meta_mean_anomaly": 232.7894,
        "meta_ephemeris_type": 0,
        "meta_classification_type": "U",
        "meta_norad_cat_id": 44299,
        "meta_element_set_no": 999,
        "meta_rev_at_epoch": 5121,
        "meta_bstar": 0,
        "meta_mean_motion_dot": 1.03e-06,
        "meta_mean_motion_ddot": 0,
        "tle_line1": "1 44299U 19030A   25359.11492887  .00000103  00000+0  00000+0 0  9997",
        "tle_line2": "2 44299  64.3664 198.4757 0008618 283.7292 232.7894  2.13102173 51210"
      },
      "geometry": {
        "type": "Point",
        "coordinates": [
          96.32156503604277,
          -63.83555201368122
        ]
      }
    },
    {
      "type": "Feature",
      "properties": {
        "norad_id": 44337,
        "name": "BEIDOU-3 IGSO-2 (C39)",
        "group": "gnss",
        "lat": 43.19747467669709,
        "lon": -60.381046549582656,
        "alt_km": 35751.86770936572,
        "timestamp": "2025-12-26T04:40:06.030682+00:00",
        "meta_object_name": "BEIDOU-3 IGSO-2 (C39)",
        "meta_object_id": "2019-035A",
        "meta_epoch": "2025-12-25T18:13:52.363776",
        "meta_mean_motion": 1.00267205,
        "meta_eccentricity": 0.00378775,
        "meta_inclination": 55.2292,
        "meta_ra_of_asc_node": 160.387,
        "meta_arg_of_pericenter": 202.6493,
        "meta_mean_anomaly": 124.2453,
        "meta_ephemeris_type": 0,
        "meta_classification_type": "U",
        "meta_norad_cat_id": 44337,
        "meta_element_set_no": 999,
        "meta_rev_at_epoch": 2392,
        "meta_bstar": 0,
        "meta_mean_motion_dot": -6.4e-07,
        "meta_mean_motion_ddot": 0,
        "tle_line1": "1 44337U 19035A   25359.75963384 -.00000064  00000+0  00000+0 0  9997",
        "tle_line2": "2 44337  55.2292 160.3870 0037877 202.6493 124.2453  1.00267205 23921"
      },
      "geometry": {
        "type": "Point",
        "coordinates": [
          -60.381046549582656,
          43.19747467669709
        ]
      }
    },
    {
      "type": "Feature",
      "properties": {
        "norad_id": 44506,
        "name": "GPS BIII-2  (PRN 18)",
        "group": "gnss",
        "lat": 28.529864767073736,
        "lon": -0.23312062838669811,
        "alt_km": 20325.134230126492,
        "timestamp": "2025-12-26T04:40:06.030702+00:00",
        "meta_object_name": "GPS BIII-2  (PRN 18)",
        "meta_object_id": "2019-056A",
        "meta_epoch": "2025-12-25T04:27:47.883168",
        "meta_mean_motion": 2.00566525,
        "meta_eccentricity": 0.00577677,
        "meta_inclination": 55.7168,
        "meta_ra_of_asc_node": 338.0593,
        "meta_arg_of_pericenter": 198.6492,
        "meta_mean_anomaly": 188.635,
        "meta_ephemeris_type": 0,
        "meta_classification_type": "U",
        "meta_norad_cat_id": 44506,
        "meta_element_set_no": 999,
        "meta_rev_at_epoch": 4658,
        "meta_bstar": 0,
        "meta_mean_motion_dot": -5.9e-07,
        "meta_mean_motion_ddot": 0,
        "tle_line1": "1 44506U 19056A   25359.18597087 -.00000059  00000+0  00000+0 0  9992",
        "tle_line2": "2 44506  55.7168 338.0593 0057767 198.6492 188.6350  2.00566525 46580"
      },
      "geometry": {
        "type": "Point",
        "coordinates": [
          -0.23312062838669811,
          28.529864767073736
        ]
      }
    },
    {
      "type": "Feature",
      "properties": {
        "norad_id": 44542,
        "name": "BEIDOU-3 M24 (C46)",
        "group": "gnss",
        "lat": -53.29482986039346,
        "lon": 82.56757436914033,
        "alt_km": 21549.56749836901,
        "timestamp": "2025-12-26T04:40:06.030723+00:00",
        "meta_object_name": "BEIDOU-3 M24 (C46)",
        "meta_object_id": "2019-061A",
        "meta_epoch": "2025-12-24T17:34:06.027744",
        "meta_mean_motion": 1.86229347,
        "meta_eccentricity": 0.00095746,
        "meta_inclination": 54.4007,
        "meta_ra_of_asc_node": 188.6113,
        "meta_arg_of_pericenter": 26.2213,
        "meta_mean_anomaly": 333.8628,
        "meta_ephemeris_type": 0,
        "meta_classification_type": "U",
        "meta_norad_cat_id": 44542,
        "meta_element_set_no": 999,
        "meta_rev_at_epoch": 4254,
        "meta_bstar": 0,
        "meta_mean_motion_dot": 1.06e-06,
        "meta_mean_motion_ddot": 0,
        "tle_line1": "1 44542U 19061A   25358.73201421  .00000106  00000+0  00000+0 0  9994",
        "tle_line2": "2 44542  54.4007 188.6113 0009574  26.2213 333.8628  1.86229347 42540"
      },
      "geometry": {
        "type": "Point",
        "coordinates": [
          82.56757436914033,
          -53.29482986039346
        ]
      }
    },
    {
      "type": "Feature",
      "properties": {
        "norad_id": 44543,
        "name": "BEIDOU-3 M23 (C45)",
        "group": "gnss",
        "lat": 5.407072793676275,
        "lon": 4.643226058417966,
        "alt_km": 21542.084738634694,
        "timestamp": "2025-12-26T04:40:06.030741+00:00",
        "meta_object_name": "BEIDOU-3 M23 (C45)",
        "meta_object_id": "2019-061B",
        "meta_epoch": "2025-12-25T03:38:38.812704",
        "meta_mean_motion": 1.86227443,
        "meta_eccentricity": 0.00060137,
        "meta_inclination": 54.3997,
        "meta_ra_of_asc_node": 188.5655,
        "meta_arg_of_pericenter": 25.8754,
        "meta_mean_anomaly": 168.3625,
        "meta_ephemeris_type": 0,
        "meta_classification_type": "U",
        "meta_norad_cat_id": 44543,
        "meta_element_set_no": 999,
        "meta_rev_at_epoch": 4255,
        "meta_bstar": 0,
        "meta_mean_motion_dot": 1.1e-06,
        "meta_mean_motion_ddot": 0,
        "tle_line1": "1 44543U 19061B   25359.15183811  .00000110  00000+0  00000+0 0  9999",
        "tle_line2": "2 44543  54.3997 188.5655 0006013  25.8754 168.3625  1.86227443 42552"
      },
      "geometry": {
        "type": "Point",
        "coordinates": [
          4.643226058417966,
          5.407072793676275
        ]
      }
    },
    {
      "type": "Feature",
      "properties": {
        "norad_id": 44624,
        "name": "EUTELSAT 5 WEST B (EGNOS/PRN 121)",
        "group": "gnss",
        "lat": 0.014635335985428832,
        "lon": 159.92814920715347,
        "alt_km": 35791.571680290595,
        "timestamp": "2025-12-26T04:40:06.030759+00:00",
        "meta_object_name": "EUTELSAT 5 WEST B (EGNOS/PRN 121)",
        "meta_object_id": "2019-067A",
        "meta_epoch": "2025-12-25T18:10:42.799584",
        "meta_mean_motion": 1.00271274,
        "meta_eccentricity": 0.00031839,
        "meta_inclination": 0.0627,
        "meta_ra_of_asc_node": 345.6151,
        "meta_arg_of_pericenter": 287.7229,
        "meta_mean_anomaly": 88.854,
        "meta_ephemeris_type": 0,
        "meta_classification_type": "U",
        "meta_norad_cat_id": 44624,
        "meta_element_set_no": 999,
        "meta_rev_at_epoch": 2269,
        "meta_bstar": 0,
        "meta_mean_motion_dot": -2.1e-07,
        "meta_mean_motion_ddot": 0,
        "tle_line1": "1 44624U 19067A   25359.75743981 -.00000021  00000+0  00000+0 0  9993",
        "tle_line2": "2 44624   0.0627 345.6151 0003183 287.7229  88.8540  1.00271274 22690"
      },
      "geometry": {
        "type": "Point",
        "coordinates": [
          159.92814920715347,
          0.014635335985428832
        ]
      }
    }
  ]
}